{"type": "FeatureCollection", "features": [ {"type": "Feature", "properties": {"norad_id": 40664, "name": "SKY MEXICO-1", "group": "intelsat", "lat": -0.012229879567580594, "lon": 172.00636437835539, "alt_km": 35789.57805512328, "timestamp": "2025-12-19T10:50:00.859536+00:00", "meta": {"OBJECT_NAME": "SKY MEXICO-1", "OBJECT_ID": "2015-026B", "EPOCH": "2025-12-18T19:46:09.916032", "MEAN_MOTION": 1.00272475, "ECCENTRICITY": 0.00023066, "INCLINATION": 0.0132, "RA_OF_ASC_NODE": 316.5627, "ARG_OF_PERICENTER": 327.4782, "MEAN_ANOMALY": 21.4186, "EPHEMERIS_TYPE": 0, "CLASSIFICATION_TYPE": "U", "NORAD_CAT_ID": 40664, "ELEMENT_SET_NO": 999, "REV_AT_EPOCH": 3864, "BSTAR": 0, "MEAN_MOTION_DOT": -2.1e-06, "MEAN_MOTION_DDOT": 0}, "tle": {"line1": "1 40664U 15026B   25352.82372588 -.00000210  00000+0  00000+0 0  9996", "line2": "2 40664   0.0132 316.5627 0002306 327.4782  21.4186  1.00272475 38643"}}, "geometry": {"type": "Point", "coordinates": [172.00636437835539, -0.012229879567580594]}}, {"type": "Feature", "properties": {"norad_id": 40874, "name": "INTELSAT 34 (IS-34)", "group": "intelsat", "lat": -0.020370396232523118, "lon": -164.71682631778296, "alt_km": 35785.38314308585, "timestamp": "2025-12-19T10:50:00.859548+00:00", "meta": {"OBJECT_NAME": "INTELSAT 34 (IS-34)", "OBJECT_ID": "2015-039A", "EPOCH": "2025-12-18T19:52:46.782336", "MEAN_MOTION": 1.00269757, "ECCENTRICITY": 5.944e-05, "INCLINATION": 0.0159, "RA_OF_ASC_NODE": 344.6956, "ARG_OF_PERICENTER": 153.3113, "MEAN_ANOMALY": 192.3634, "EPHEMERIS_TYPE": 0, "CLASSIFICATION_TYPE": "U", "NORAD_CAT_ID": 40874, "ELEMENT_SET_NO": 999, "REV_AT_EPOCH": 3781, "BSTAR": 0, "MEAN_MOTION_DOT": -2.6e-06, "MEAN_MOTION_DDOT": 0}, "tle": {"line1": "1 40874U 15039A   25352.82831924 -.00000260  00000+0  00000+0 0  9992", "line2": "2 40874   0.0159 344.6956 0000594 153.3113 192.3634  1.00269757 37816"}}, "geometry": {"type": "Point", "coordinates": [-164.71682631778296, -0.020370396232523118]}}, {"type": "Feature", "properties": {"norad_id": 41581, "name": "INTELSAT 31 (IS-31)", "group": "intelsat", "lat": -0.0108227635895179, "lon": 155.72371974100037, "alt_km": 35780.72730172175, "timestamp": "2025-12-19T10:50:00.859560+00:00", "meta": {"OBJECT_NAME": "INTELSAT 31 (IS-31)", "OBJECT_ID": "2016-035A", "EPOCH": "2025-12-18T19:41:32.858016", "MEAN_MOTION": 1.00271066, "ECCENTRICITY": 0.00019884, "INCLINATION": 0.0228, "RA_OF_ASC_NODE": 273.6203, "ARG_OF_PERICENTER": 289.9223, "MEAN_ANOMALY": 84.472, "EPHEMERIS_TYPE": 0, "CLASSIFICATION_TYPE": "U", "NORAD_CAT_ID": 41581, "ELEMENT_SET_NO": 999, "REV_AT_EPOCH": 3487, "BSTAR": 0, "MEAN_MOTION_DOT": -1.26e-06, "MEAN_MOTION_DDOT": 0}, "tle": {"line1": "1 41581U 16035A   25352.82051919 -.00000126  00000+0  00000+0 0  9994", "line2": "2 41581   0.0228 273.6203 0001988 289.9223  84.4720  1.00271066 34877"}}, "geometry": {"type": "Point", "coordinates": [155.72371974100037, -0.0108227635895179]}}, {"type": "Feature", "properties": {"norad_id": 41747, "name": "INTELSAT 36 (IS-36)", "group": "intelsat", "lat": -0.026764165095600076, "lon": -40.72946106470148, "alt_km": 35780.230512965216, "timestamp": "2025-12-19T10:50:00.859572+00:00", "meta": {"OBJECT_NAME": "INTELSAT 36 (IS-36)", "OBJECT_ID": "2016-053A", "EPOCH": "2025-12-18T20:14:05.489376", "MEAN_MOTION": 1.00271742, "ECCENTRICITY": 0.00014506, "INCLINATION": 0.0127, "RA_OF_ASC_NODE": 10.7493, "ARG_OF_PERICENTER": 324.8312, "MEAN_ANOMALY": 124.1251, "EPHEMERIS_TYPE": 0, "CLASSIFICATION_TYPE": "U", "NORAD_CAT_ID": 41747, "ELEMENT_SET_NO": 999, "REV_AT_EPOCH": 3414, "BSTAR": 0, "MEAN_MOTION_DOT": 1e-08, "MEAN_MOTION_DDOT": 0}, "tle": {"line1": "1 41747U 16053A   25352.84311909  .00000001  00000+0  00000+0 0  9999", "line2": "2 41747   0.0127  10.7493 0001450 324.8312 124.1251  1.00271742 34144"}}, "geometry": {"type": "Point", "coordinates": [-40.72946106470148, -0.026764165095600076]}}, {"type": "Feature", "properties": {"norad_id": 41945, "name": "INTELSAT 32E (IS-32E)", "group": "intelsat", "lat": 0.0071595145188120225, "lon": -152.39025202955986, "alt_km": 35789.59211587671, "timestamp": "2025-12-19T10:50:00.859584+00:00", "meta": {"OBJECT_NAME": "INTELSAT 32E (IS-32E)", "OBJECT_ID": "2017-007B", "EPOCH": "2025-12-18T19:56:16.448352", "MEAN_MOTION": 1.00269994, "ECCENTRICITY": 7.005e-05, "INCLINATION": 0.0314, "RA_OF_ASC_NODE": 72.948, "ARG_OF_PERICENTER": 316.8667, "MEAN_ANOMALY": 313.7628, "EPHEMERIS_TYPE": 0, "CLASSIFICATION_TYPE": "U", "NORAD_CAT_ID": 41945, "ELEMENT_SET_NO": 999, "REV_AT_EPOCH": 3241, "BSTAR": 0, "MEAN_MOTION_DOT": -2.44e-06, "MEAN_MOTION_DDOT": 0}, "tle": {"line1": "1 41945U 17007B   25352.83074593 -.00000244  00000+0  00000+0 0  9993", "line2": "2 41945   0.0314  72.9480 0000700 316.8667 313.7628  1.00269994 32417"}}, "geometry": {"type": "Point", "coordinates": [-152.39025202955986, 0.0071595145188120225]}}, {"type": "Feature", "properties": {"norad_id": 42818, "name": "INTELSAT 35E (IS-35E)", "group": "intelsat", "lat": -0.023845419081632745, "lon": -143.72550559692888, "alt_km": 35782.400536143585, "timestamp": "2025-12-19T10:50:00.859596+00:00", "meta": {"OBJECT_NAME": "INTELSAT 35E (IS-35E)", "OBJECT_ID": "2017-041A", "EPOCH": "2025-12-18T19:58:46.208928", "MEAN_MOTION": 1.00269639, "ECCENTRICITY": 0.00018401, "INCLINATION": 0.0275, "RA_OF_ASC_NODE": 18.8807, "ARG_OF_PERICENTER": 253.6454, "MEAN_ANOMALY": 80.3606, "EPHEMERIS_TYPE": 0, "CLASSIFICATION_TYPE": "U", "NORAD_CAT_ID": 42818, "ELEMENT_SET_NO": 999, "REV_AT_EPOCH": 3100, "BSTAR": 0, "MEAN_MOTION_DOT": 0, "MEAN_MOTION_DDOT": 0}, "tle": {"line1": "1 42818U 17041A   25352.83247927  .00000000  00000+0  00000+0 0  9993", "line2": "2 42818   0.0275  18.8807 0001840 253.6454  80.3606  1.00269639 31006"}}, "geometry": {"type": "Point", "coordinates": [-143.72550559692888, -0.023845419081632745]}}, {"type": "Feature", "properties": {"norad_id": 42950, "name": "INTELSAT 37E (IS-37E)", "group": "intelsat", "lat": -0.04004013177961405, "lon": -127.24021469922816, "alt_km": 35775.435452904654, "timestamp": "2025-12-19T10:50:00.859607+00:00", "meta": {"OBJECT_NAME": "INTELSAT 37E (IS-37E)", "OBJECT_ID": "2017-059A", "EPOCH": "2025-12-18T20:03:30.754368", "MEAN_MOTION": 1.0026955, "ECCENTRICITY": 0.00029565, "INCLINATION": 0.0268, "RA_OF_ASC_NODE": 10.7187, "ARG_OF_PERICENTER": 247.5659, "MEAN_ANOMALY": 112.2734, "EPHEMERIS_TYPE": 0, "CLASSIFICATION_TYPE": "U", "NORAD_CAT_ID": 42950, "ELEMENT_SET_NO": 999, "REV_AT_EPOCH": 3025, "BSTAR": 0, "MEAN_MOTION_DOT": 0, "MEAN_MOTION_DDOT": 0}, "tle": {"line1": "1 42950U 17059A   25352.83577262  .00000000  00000+0  00000+0 0  9997", "line2": "2 42950   0.0268  10.7187 0002956 247.5659 112.2734  1.00269550 30250"}}, "geometry": {"type": "Point", "coordinates": [-127.24021469922816, -0.04004013177961405]}}, {"type": "Feature", "properties": {"norad_id": 43632, "name": "AZERSPACE 2 (IS-38)", "group": "intelsat", "lat": -0.049458079561244275, "lon": -64.10052757286614, "alt_km": 35780.37697990209, "timestamp": "2025-12-19T10:50:00.859619+00:00", "meta": {"OBJECT_NAME": "AZERSPACE 2 (IS-38)", "OBJECT_ID": "2018-074A", "EPOCH": "2025-12-18T20:21:29.033280", "MEAN_MOTION": 1.00272443, "ECCENTRICITY": 0.00012971, "INCLINATION": 0.0272, "RA_OF_ASC_NODE": 8.6772, "ARG_OF_PERICENTER": 281.0733, "MEAN_ANOMALY": 148.4292, "EPHEMERIS_TYPE": 0, "CLASSIFICATION_TYPE": "U", "NORAD_CAT_ID": 43632, "ELEMENT_SET_NO": 999, "REV_AT_EPOCH": 2663, "BSTAR": 0, "MEAN_MOTION_DOT": 0, "MEAN_MOTION_DDOT": 0}, "tle": {"line1": "1 43632U 18074A   25352.84825270  .00000000  00000+0  00000+0 0  9999", "line2": "2 43632   0.0272   8.6772 0001297 281.0733 148.4292  1.00272443 26634"}}, "geometry": {"type": "Point", "coordinates": [-64.10052757286614, -0.049458079561244275]}}, {"type": "Feature", "properties": {"norad_id": 43633, "name": "HORIZONS-3E", "group": "intelsat", "lat": 0.012412542126323714, "lon": 59.777763730770786, "alt_km": 35787.991326767995, "timestamp": "2025-12-19T10:50:00.859631+00:00", "meta": {"OBJECT_NAME": "HORIZONS-3E", "OBJECT_ID": "2018-074B", "EPOCH": "2025-12-18T19:14:03.182208", "MEAN_MOTION": 1.0027044, "ECCENTRICITY": 5.722e-05, "INCLINATION": 0.0397, "RA_OF_ASC_NODE": 185.1154, "ARG_OF_PERICENTER": 104.9885, "MEAN_ANOMALY": 255.0516, "EPHEMERIS_TYPE": 0, "CLASSIFICATION_TYPE": "U", "NORAD_CAT_ID": 43633, "ELEMENT_SET_NO": 999, "REV_AT_EPOCH": 2653, "BSTAR": 0, "MEAN_MOTION_DOT": -6e-08, "MEAN_MOTION_DDOT": 0}, "tle": {"line1": "1 43633U 18074B   25352.80142572 -.00000006  00000+0  00000+0 0  9990", "line2": "2 43633   0.0397 185.1154 0000572 104.9885 255.0516  1.00270440 26532"}}, "geometry": {"type": "Point", "coordinates": [59.777763730770786, 0.012412542126323714]}}, {"type": "Feature", "properties": {"norad_id": 44333, "name": "AT&T T-16", "group": "intelsat", "lat": 0.029970530794726027, "lon": 149.93272402581715, "alt_km": 35781.901060055214, "timestamp": "2025-12-19T10:50:00.859643+00:00", "meta": {"OBJECT_NAME": "AT&T T-16", "OBJECT_ID": "2019-034A", "EPOCH": "2025-12-18T23:05:13.350912", "MEAN_MOTION": 1.00272379, "ECCENTRICITY": 9.692e-05, "INCLINATION": 0.0254, "RA_OF_ASC_NODE": 65.8421, "ARG_OF_PERICENTER": 74.8034, "MEAN_ANOMALY": 192.6147, "EPHEMERIS_TYPE": 0, "CLASSIFICATION_TYPE": "U", "NORAD_CAT_ID": 44333, "ELEMENT_SET_NO": 999, "REV_AT_EPOCH": 2382, "BSTAR": 0, "MEAN_MOTION_DOT": -9.1e-07, "MEAN_MOTION_DDOT": 0}, "tle": {"line1": "1 44333U 19034A   25352.96196008 -.00000091  00000+0  00000+0 0  9999", "line2": "2 44333   0.0254  65.8421 0000969  74.8034 192.6147  1.00272379 23822"}}, "geometry": {"type": "Point", "coordinates": [149.93272402581715, 0.029970530794726027]}}]}